{"fetched_at":"2026-03-30T06:02:59Z","count":15439,"tles":[{"name":"STARLINK-32281","line1":"1 60375U 24138W   26087.65220326  .00001104  00000+0  49382-4 0  9993","line2":"2 60375  53.1601 221.3224 0000863  49.7257 310.3819 15.30191946 93439","category":"Starlink"}]}